SL-3 R/B                
1 13403U 82079B   26084.94016808  .00005091  00000+0  20105-3 0  9998
2 13403  81.1481 173.8903 0025551 111.2807 249.1159 15.25014582380178
SL-14 R/B               
1 13553U 82092B   26084.88511267  .00000417  00000+0  44101-4 0  9991
2 13553  82.5663 126.2495 0018894 245.5846 287.0070 14.86680484331338
SL-3 R/B                
1 13819U 83010B   26084.15894829  .00013701  00000+0  27048-3 0  9995
2 13819  81.1050 343.2767 0016395 359.1120   1.0093 15.46876068360335
SL-3 R/B                
1 14208U 83075B   26084.94609123  .00010444  00000+0  27235-3 0  9996
2 14208  97.6147  90.1439 0021911 166.3937 193.7903 15.38790865332659
COSMOS 1536             
1 14699U 84013A   26084.74140811  .00006434  00000+0  26350-3 0  9996
2 14699  82.5420  91.8876 0013057 219.8237 140.2043 15.24036786275065
SL-14 R/B               
1 14820U 84027B   26084.65202483  .00000515  00000+0  56047-4 0  9992
2 14820  82.5409 230.0399 0016491 281.5821  78.3544 14.85992360250004
SL-8 R/B                
1 15483U 85006B   26084.45140903  .00000325  00000+0  11625-3 0  9993
2 15483  74.0444 232.1428 0017810 145.5024 270.1591 14.37794350156297
SL-12 R/B(2)            
1 15772U 85042D   26084.94388852  .00000134  00000+0  81490-4 0  9991
2 15772  71.1079  53.3852 0032859 101.1878 319.2742 14.21986895116704
SL-14 R/B               
1 15945U 85069B   26084.90121855  .00000501  00000+0  53696-4 0  9991
2 15945  82.5304   9.6929 0019844 135.2406 225.0416 14.86450249175242
SL-16 R/B               
1 16182U 85097B   26084.82577104  .00000076  00000+0  62135-4 0  9994
2 16182  71.0009 106.5820 0009509 240.8578 292.0399 14.16603237 89516
SL-14 R/B               
1 16496U 86006B   26084.94141600  .00000851  00000+0  87827-4 0  9990
2 16496  82.5246 244.4375 0075587 217.9602 141.6275 14.86838959151625
COSMOS 1743             
1 16719U 86034A   26084.94345736  .00040372  00000+0  50064-3 0  9999
2 16719  82.5304  56.7541 0003702 179.9868 180.1389 15.59852528182782
