CCSDS_OMM_VERS = 2.0
CREATION_DATE  = 
ORIGINATOR     = 

OBJECT_NAME    = SL-3 R/B
OBJECT_ID      = 1982-079B
CENTER_NAME    = EARTH
REF_FRAME      = TEME
TIME_SYSTEM    = UTC
MEAN_ELEMENT_THEORY = SGP/SGP4

EPOCH          = 2026-03-25T22:33:50.522112
MEAN_MOTION    = 15.25014582
ECCENTRICITY   = .00255511
INCLINATION    = 81.1481
RA_OF_ASC_NODE = 173.8903
ARG_OF_PERICENTER = 111.2807
MEAN_ANOMALY   = 249.1159

EPHEMERIS_TYPE = 0
CLASSIFICATION_TYPE = U
NORAD_CAT_ID   = 13403
ELEMENT_SET_NO = 999
REV_AT_EPOCH   = 38017
BSTAR          = .20104874E-3
MEAN_MOTION_DOT = .5091E-4
MEAN_MOTION_DDOT = 0

CCSDS_OMM_VERS = 2.0
CREATION_DATE  = 
ORIGINATOR     = 

OBJECT_NAME    = SL-14 R/B
OBJECT_ID      = 1982-092B
CENTER_NAME    = EARTH
REF_FRAME      = TEME
TIME_SYSTEM    = UTC
MEAN_ELEMENT_THEORY = SGP/SGP4

EPOCH          = 2026-03-25T21:14:33.734688
MEAN_MOTION    = 14.86680484
ECCENTRICITY   = .00188947
INCLINATION    = 82.5663
RA_OF_ASC_NODE = 126.2495
ARG_OF_PERICENTER = 245.5846
MEAN_ANOMALY   = 287.0070

EPHEMERIS_TYPE = 0
CLASSIFICATION_TYPE = U
NORAD_CAT_ID   = 13553
ELEMENT_SET_NO = 999
REV_AT_EPOCH   = 33133
BSTAR          = .44101383E-4
MEAN_MOTION_DOT = .417E-5
MEAN_MOTION_DDOT = 0

CCSDS_OMM_VERS = 2.0
CREATION_DATE  = 
ORIGINATOR     = 

OBJECT_NAME    = SL-3 R/B
OBJECT_ID      = 1983-010B
CENTER_NAME    = EARTH
REF_FRAME      = TEME
TIME_SYSTEM    = UTC
MEAN_ELEMENT_THEORY = SGP/SGP4

EPOCH          = 2026-03-25T03:48:53.132256
MEAN_MOTION    = 15.46876068
ECCENTRICITY   = .00163955
INCLINATION    = 81.1050
RA_OF_ASC_NODE = 343.2767
ARG_OF_PERICENTER = 359.1120
MEAN_ANOMALY   = 1.0093

EPHEMERIS_TYPE = 0
CLASSIFICATION_TYPE = U
NORAD_CAT_ID   = 13819
ELEMENT_SET_NO = 999
REV_AT_EPOCH   = 36033
BSTAR          = .27048244E-3
MEAN_MOTION_DOT = .13701E-3
MEAN_MOTION_DDOT = 0

CCSDS_OMM_VERS = 2.0
CREATION_DATE  = 
ORIGINATOR     = 

OBJECT_NAME    = SL-3 R/B
OBJECT_ID      = 1983-075B
CENTER_NAME    = EARTH
REF_FRAME      = TEME
TIME_SYSTEM    = UTC
MEAN_ELEMENT_THEORY = SGP/SGP4

EPOCH          = 2026-03-25T22:42:22.282272
MEAN_MOTION    = 15.38790865
ECCENTRICITY   = .00219114
INCLINATION    = 97.6147
RA_OF_ASC_NODE = 90.1439
ARG_OF_PERICENTER = 166.3937
MEAN_ANOMALY   = 193.7903

EPHEMERIS_TYPE = 0
CLASSIFICATION_TYPE = U
NORAD_CAT_ID   = 14208
ELEMENT_SET_NO = 999
REV_AT_EPOCH   = 33265
BSTAR          = .2723459E-3
MEAN_MOTION_DOT = .10444E-3
MEAN_MOTION_DDOT = 0

CCSDS_OMM_VERS = 2.0
CREATION_DATE  = 
ORIGINATOR     = 

OBJECT_NAME    = COSMOS 1536
OBJECT_ID      = 1984-013A
CENTER_NAME    = EARTH
REF_FRAME      = TEME
TIME_SYSTEM    = UTC
MEAN_ELEMENT_THEORY = SGP/SGP4

EPOCH          = 2026-03-25T17:47:37.660704
MEAN_MOTION    = 15.24036786
ECCENTRICITY   = .00130572
INCLINATION    = 82.5420
RA_OF_ASC_NODE = 91.8876
ARG_OF_PERICENTER = 219.8237
MEAN_ANOMALY   = 140.2043

EPHEMERIS_TYPE = 0
CLASSIFICATION_TYPE = U
NORAD_CAT_ID   = 14699
ELEMENT_SET_NO = 999
REV_AT_EPOCH   = 27506
BSTAR          = .26350329E-3
MEAN_MOTION_DOT = .6434E-4
MEAN_MOTION_DDOT = 0

CCSDS_OMM_VERS = 2.0
CREATION_DATE  = 
ORIGINATOR     = 

OBJECT_NAME    = SL-14 R/B
OBJECT_ID      = 1984-027B
CENTER_NAME    = EARTH
REF_FRAME      = TEME
TIME_SYSTEM    = UTC
MEAN_ELEMENT_THEORY = SGP/SGP4

EPOCH          = 2026-03-25T15:38:54.945312
MEAN_MOTION    = 14.85992360
ECCENTRICITY   = .0016491
INCLINATION    = 82.5409
RA_OF_ASC_NODE = 230.0399
ARG_OF_PERICENTER = 281.5821
MEAN_ANOMALY   = 78.3544

EPHEMERIS_TYPE = 0
CLASSIFICATION_TYPE = U
NORAD_CAT_ID   = 14820
ELEMENT_SET_NO = 999
REV_AT_EPOCH   = 25000
BSTAR          = .56047E-4
MEAN_MOTION_DOT = .515E-5
MEAN_MOTION_DDOT = 0

CCSDS_OMM_VERS = 2.0
CREATION_DATE  = 
ORIGINATOR     = 

OBJECT_NAME    = SL-8 R/B
OBJECT_ID      = 1985-006B
CENTER_NAME    = EARTH
REF_FRAME      = TEME
TIME_SYSTEM    = UTC
MEAN_ELEMENT_THEORY = SGP/SGP4

EPOCH          = 2026-03-25T10:50:01.740192
MEAN_MOTION    = 14.37794350
ECCENTRICITY   = .00178109
INCLINATION    = 74.0444
RA_OF_ASC_NODE = 232.1428
ARG_OF_PERICENTER = 145.5024
MEAN_ANOMALY   = 270.1591

EPHEMERIS_TYPE = 0
CLASSIFICATION_TYPE = U
NORAD_CAT_ID   = 15483
ELEMENT_SET_NO = 999
REV_AT_EPOCH   = 15629
BSTAR          = .11624805E-3
MEAN_MOTION_DOT = .325E-5
MEAN_MOTION_DDOT = 0

CCSDS_OMM_VERS = 2.0
CREATION_DATE  = 
ORIGINATOR     = 

OBJECT_NAME    = SL-12 R/B(2)
OBJECT_ID      = 1985-042D
CENTER_NAME    = EARTH
REF_FRAME      = TEME
TIME_SYSTEM    = UTC
MEAN_ELEMENT_THEORY = SGP/SGP4

EPOCH          = 2026-03-25T22:39:11.968128
MEAN_MOTION    = 14.21986895
ECCENTRICITY   = .0032859
INCLINATION    = 71.1079
RA_OF_ASC_NODE = 53.3852
ARG_OF_PERICENTER = 101.1878
MEAN_ANOMALY   = 319.2742

EPHEMERIS_TYPE = 0
CLASSIFICATION_TYPE = U
NORAD_CAT_ID   = 15772
ELEMENT_SET_NO = 999
REV_AT_EPOCH   = 11670
BSTAR          = .81490144E-4
MEAN_MOTION_DOT = .134E-5
MEAN_MOTION_DDOT = 0

CCSDS_OMM_VERS = 2.0
CREATION_DATE  = 
ORIGINATOR     = 

OBJECT_NAME    = SL-14 R/B
OBJECT_ID      = 1985-069B
CENTER_NAME    = EARTH
REF_FRAME      = TEME
TIME_SYSTEM    = UTC
MEAN_ELEMENT_THEORY = SGP/SGP4

EPOCH          = 2026-03-25T21:37:45.282720
MEAN_MOTION    = 14.86450249
ECCENTRICITY   = .00198441
INCLINATION    = 82.5304
RA_OF_ASC_NODE = 9.6929
ARG_OF_PERICENTER = 135.2406
MEAN_ANOMALY   = 225.0416

EPHEMERIS_TYPE = 0
CLASSIFICATION_TYPE = U
NORAD_CAT_ID   = 15945
ELEMENT_SET_NO = 999
REV_AT_EPOCH   = 17524
BSTAR          = .53696288E-4
MEAN_MOTION_DOT = .501E-5
MEAN_MOTION_DDOT = 0

CCSDS_OMM_VERS = 2.0
CREATION_DATE  = 
ORIGINATOR     = 

OBJECT_NAME    = SL-16 R/B
OBJECT_ID      = 1985-097B
CENTER_NAME    = EARTH
REF_FRAME      = TEME
TIME_SYSTEM    = UTC
MEAN_ELEMENT_THEORY = SGP/SGP4

EPOCH          = 2026-03-25T19:49:06.617856
MEAN_MOTION    = 14.16603237
ECCENTRICITY   = .00095096
INCLINATION    = 71.0009
RA_OF_ASC_NODE = 106.5820
ARG_OF_PERICENTER = 240.8578
MEAN_ANOMALY   = 292.0399

EPHEMERIS_TYPE = 0
CLASSIFICATION_TYPE = U
NORAD_CAT_ID   = 16182
ELEMENT_SET_NO = 999
REV_AT_EPOCH   = 8951
BSTAR          = .62135411E-4
MEAN_MOTION_DOT = .76E-6
MEAN_MOTION_DDOT = 0

CCSDS_OMM_VERS = 2.0
CREATION_DATE  = 
ORIGINATOR     = 

OBJECT_NAME    = SL-14 R/B
OBJECT_ID      = 1986-006B
CENTER_NAME    = EARTH
REF_FRAME      = TEME
TIME_SYSTEM    = UTC
MEAN_ELEMENT_THEORY = SGP/SGP4

EPOCH          = 2026-03-25T22:35:38.342400
MEAN_MOTION    = 14.86838959
ECCENTRICITY   = .00755879
INCLINATION    = 82.5246
RA_OF_ASC_NODE = 244.4375
ARG_OF_PERICENTER = 217.9602
MEAN_ANOMALY   = 141.6275

EPHEMERIS_TYPE = 0
CLASSIFICATION_TYPE = U
NORAD_CAT_ID   = 16496
ELEMENT_SET_NO = 999
REV_AT_EPOCH   = 15162
BSTAR          = .87826574E-4
MEAN_MOTION_DOT = .851E-5
MEAN_MOTION_DDOT = 0

CCSDS_OMM_VERS = 2.0
CREATION_DATE  = 
ORIGINATOR     = 

OBJECT_NAME    = COSMOS 1743
OBJECT_ID      = 1986-034A
CENTER_NAME    = EARTH
REF_FRAME      = TEME
TIME_SYSTEM    = UTC
MEAN_ELEMENT_THEORY = SGP/SGP4

EPOCH          = 2026-03-25T22:38:34.715904
MEAN_MOTION    = 15.59852528
ECCENTRICITY   = .0003702
INCLINATION    = 82.5304
RA_OF_ASC_NODE = 56.7541
ARG_OF_PERICENTER = 179.9868
MEAN_ANOMALY   = 180.1389

EPHEMERIS_TYPE = 0
CLASSIFICATION_TYPE = U
NORAD_CAT_ID   = 16719
ELEMENT_SET_NO = 999
REV_AT_EPOCH   = 18278
BSTAR          = .50063674E-3
MEAN_MOTION_DOT = .40372E-3
MEAN_MOTION_DDOT = 0

